[{"OBJECT_NAME":"YAOGAN-14","OBJECT_ID":"2012-021A","EPOCH":"2026-03-09T23:13:16.463424","MEAN_MOTION":15.26486019,"ECCENTRICITY":0.00056417,"INCLINATION":97.2863,"RA_OF_ASC_NODE":208.4378,"ARG_OF_PERICENTER":161.6562,"MEAN_ANOMALY":198.4882,"EPHEMERIS_TYPE":0,"CLASSIFICATION_TYPE":"U","NORAD_CAT_ID":38257,"ELEMENT_SET_NO":999,"REV_AT_EPOCH":77067,"BSTAR":0.00037795498,"MEAN_MOTION_DOT":9.798e-5,"MEAN_MOTION_DDOT":0},{"OBJECT_NAME":"STARLINK-30966","OBJECT_ID":"2023-183T","EPOCH":"2026-03-09T06:50:36.133152","MEAN_MOTION":15.27588736,"ECCENTRICITY":0.00016028,"INCLINATION":43.0015,"RA_OF_ASC_NODE":43.7959,"ARG_OF_PERICENTER":275.5141,"MEAN_ANOMALY":84.5528,"EPHEMERIS_TYPE":0,"CLASSIFICATION_TYPE":"U","NORAD_CAT_ID":58454,"ELEMENT_SET_NO":999,"REV_AT_EPOCH":12667,"BSTAR":6.2946626e-5,"MEAN_MOTION_DOT":1.471e-5,"MEAN_MOTION_DDOT":0}]
